[
    {
        "CCSDS_OMM_VERS": "3.0",
        "COMMENT": "GENERATED VIA SPACE-TRACK.ORG API",
        "CREATION_DATE": "2025-03-02T22:46:31",
        "ORIGINATOR": "18 SPCS",
        "OBJECT_NAME": "BEIDOU 3M7",
        "OBJECT_ID": "2018-029A",
        "CENTER_NAME": "EARTH",
        "REF_FRAME": "TEME",
        "TIME_SYSTEM": "UTC",
        "MEAN_ELEMENT_THEORY": "SGP4",
        "EPOCH": "2025-03-02T12:05:16.981728",
        "MEAN_MOTION": "1.86232306",
        "ECCENTRICITY": "0.00011140",
        "INCLINATION": "54.6114",
        "RA_OF_ASC_NODE": "316.3926",
        "ARG_OF_PERICENTER": "339.0329",
        "MEAN_ANOMALY": "21.0190",
        "EPHEMERIS_TYPE": "0",
        "CLASSIFICATION_TYPE": "U",
        "NORAD_CAT_ID": "43245",
        "ELEMENT_SET_NO": "999",
        "REV_AT_EPOCH": "4711",
        "BSTAR": "0.00000000000000",
        "MEAN_MOTION_DOT": "-0.00000056",
        "MEAN_MOTION_DDOT": "0.0000000000000",
        "SEMIMAJOR_AXIS": "27906.058",
        "PERIOD": "773.228",
        "APOAPSIS": "21531.032",
        "PERIAPSIS": "21524.814",
        "OBJECT_TYPE": "PAYLOAD",
        "RCS_SIZE": "LARGE",
        "COUNTRY_CODE": "PRC",
        "LAUNCH_DATE": "2018-03-29",
        "SITE": "XSC",
        "DECAY_DATE": null,
        "FILE": "4657312",
        "GP_ID": "282104090",
        "TLE_LINE0": "0 BEIDOU 3M7",
        "TLE_LINE1": "1 43245U 18029A   25061.50366877 -.00000056  00000-0  00000+0 0  9995",
        "TLE_LINE2": "2 43245  54.6114 316.3926 0001114 339.0329  21.0190  1.86232306 47114"
    }
]